{
  "norad_id": 59386,
  "name": "STARLINK-31688",
  "history": [
    {
      "epoch": "2026-03-28T11:57:32.964480",
      "apogee_km": 475.96176498561,
      "perigee_km": 474.49514477826506,
      "latitude_deg": -43.88444064279781,
      "longitude_deg": 166.43662720010616,
      "semi_major_axis_km": 6853.365454881937,
      "eccentricity": 0.000107,
      "inclination_deg": 53.1609,
      "raan_deg": 170.9588,
      "arg_perigee_deg": 79.4939,
      "mean_anomaly_deg": 280.6182,
      "mean_motion_rev_day": 15.30195517
    }
  ]
}